OBJECT_NAME,OBJECT_ID,EPOCH,MEAN_MOTION,ECCENTRICITY,INCLINATION,RA_OF_ASC_NODE,ARG_OF_PERICENTER,MEAN_ANOMALY,EPHEMERIS_TYPE,CLASSIFICATION_TYPE,NORAD_CAT_ID,ELEMENT_SET_NO,REV_AT_EPOCH,BSTAR,MEAN_MOTION_DOT,MEAN_MOTION_DDOT
FORESAIL-1 PRIME,2025-276DS,2026-07-05T04:20:09.371328,15.18875849,.0003565,97.4189,259.1235,66.2467,293.9141,0,U,66778,999,3313,.38048E-3,.787E-4,0
